$$SOE
2461288.500000000, A.D. 2026-Sep-05 00:00:00.0000, -3.240005555040925E+08, -2.052509528964192E+08, -2.169706793379909E+07,
2461295.500000000, A.D. 2026-Sep-12 00:00:00.0000, -3.164962435159203E+08, -2.134191460832808E+08, -1.929802285112660E+07,
2461302.500000000, A.D. 2026-Sep-19 00:00:00.0000, -3.087167901019566E+08, -2.214017749818415E+08, -1.688220466018838E+07,
2461309.500000000, A.D. 2026-Sep-26 00:00:00.0000, -3.006648304973211E+08, -2.291889403606668E+08, -1.445148790417460E+07,
2461316.500000000, A.D. 2026-Oct-03 00:00:00.0000, -2.923433649787503E+08, -2.367706386911920E+08, -1.200782097389641E+07,
2461323.500000000, A.D. 2026-Oct-10 00:00:00.0000, -2.837557756151279E+08, -2.441367734429387E+08, -9.553227095885918E+06,
2461330.500000000, A.D. 2026-Oct-17 00:00:00.0000, -2.749058431790420E+08, -2.512771678669898E+08, -7.089805136966810E+06,
2461337.500000000, A.D. 2026-Oct-24 00:00:00.0000, -2.657977641070774E+08, -2.581815793704042E+08, -4.619730203263819E+06,
2461344.500000000, A.D. 2026-Oct-31 00:00:00.0000, -2.564361673094048E+08, -2.648397156255969E+08, -2.145254020364121E+06,
2461351.500000000, A.D. 2026-Nov-07 00:00:00.0000, -2.468261303760395E+08, -2.712412524142289E+08, 3.312949096109569E+05,
2461358.500000000, A.D. 2026-Nov-14 00:00:00.0000, -2.369731948519669E+08, -2.773758523862208E+08, 2.807511458776876E+06,
2461365.500000000, A.D. 2026-Nov-21 00:00:00.0000, -2.268833822514205E+08, -2.832331841123303E+08, 5.280914585741997E+06,
2461372.500000000, A.D. 2026-Nov-28 00:00:00.0000, -2.165632116532568E+08, -2.888029444907941E+08, 7.748948487458825E+06,
2461379.500000000, A.D. 2026-Dec-05 00:00:00.0000, -2.060197150897487E+08, -2.940748852086948E+08, 1.020898383810607E+07,
2461386.500000000, A.D. 2026-Dec-12 00:00:00.0000, -1.952604503837871E+08, -2.990388401779339E+08, 1.265831938794985E+07,
2461393.500000000, A.D. 2026-Dec-19 00:00:00.0000, -1.842935131274568E+08, -3.036847539523917E+08, 1.509418412973735E+07,
2461400.500000000, A.D. 2026-Dec-26 00:00:00.0000, -1.731275477360696E+08, -3.080027119882146E+08, 1.751374000784111E+07,
2461407.500000000, A.D. 2027-Jan-02 00:00:00.0000, -1.617717570808481E+08, -3.119829729121534E+08, 1.991408516069511E+07,
2461414.500000000, A.D. 2027-Jan-09 00:00:00.0000, -1.502359103524309E+08, -3.156160027312001E+08, 2.229225771685956E+07,
2461421.500000000, A.D. 2027-Jan-16 00:00:00.0000, -1.385303488827852E+08, -3.188925109047285E+08, 2.464524016949031E+07,
2461428.500000000, A.D. 2027-Jan-23 00:00:00.0000, -1.266659896383705E+08, -3.218034882209260E+08, 2.696996434629290E+07,
2461435.500000000, A.D. 2027-Jan-30 00:00:00.0000, -1.146543259528678E+08, -3.243402463966690E+08, 2.926331697448373E+07,
2461442.500000000, A.D. 2027-Feb-06 00:00:00.0000, -1.025074248308049E+08, -3.264944589001433E+08, 3.152214584538004E+07,
2461449.500000000, A.D. 2027-Feb-13 00:00:00.0000, -9.023792104252674E+07, -3.282582015822237E+08, 3.374326673062301E+07,
2461456.500000000, A.D. 2027-Feb-20 00:00:00.0000, -7.785901014230305E+07, -3.296239936778016E+08, 3.592347120557143E+07,
2461463.500000000, A.D. 2027-Feb-27 00:00:00.0000, -6.538443879403883E+07, -3.305848421272606E+08, 3.805953498536026E+07,
2461470.500000000, A.D. 2027-Mar-06 00:00:00.0000, -5.282848918760619E+07, -3.311342870002729E+08, 4.014822664312580E+07,
2461477.500000000, A.D. 2027-Mar-13 00:00:00.0000, -4.020595897451498E+07, -3.312664456407179E+08, 4.218631700548066E+07,
2461484.500000000, A.D. 2027-Mar-20 00:00:00.0000, -2.753213771131484E+07, -3.309760559965394E+08, 4.417058923053862E+07,
2461491.500000000, A.D. 2027-Mar-27 00:00:00.0000, -1.482277950077398E+07, -3.302585192768558E+08, 4.609784946232490E+07,
2461498.500000000, A.D. 2027-Apr-03 00:00:00.0000, -2.094071555704938E+06, -3.291099415495282E+08, 4.796493798340999E+07,
2461505.500000000, A.D. 2027-Apr-10 00:00:00.0000, 1.063740140675925E+07, -3.275271738053403E+08, 4.976874079586154E+07,
2461512.500000000, A.D. 2027-Apr-17 00:00:00.0000, 2.335469694184629E+07, -3.255078500456595E+08, 5.150620155397949E+07,
2461519.500000000, A.D. 2027-Apr-24 00:00:00.0000, 3.604055882134528E+07, -3.230504229938776E+08, 5.317433375669666E+07,
2461526.500000000, A.D. 2027-May-01 00:00:00.0000, 4.867746529671778E+07, -3.201541969358196E+08, 5.477023308579451E+07,
2461533.500000000, A.D. 2027-May-08 00:00:00.0000, 6.124768177672233E+07, -3.168193564733686E+08, 5.629108982350986E+07,
2461540.500000000, A.D. 2027-May-15 00:00:00.0000, 7.373331614908998E+07, -3.130469897801602E+08, 5.773420145512093E+07,
2461547.500000000, A.D. 2027-May-22 00:00:00.0000, 8.611637484830008E+07, -3.088391085135809E+08, 5.909698526999954E+07,
2461554.500000000, A.D. 2027-May-29 00:00:00.0000, 9.837882263339384E+07, -3.041986654484015E+08, 6.037699041024575E+07,
2461561.500000000, A.D. 2027-Jun-05 00:00:00.0000, 1.105026465116370E+08, -2.991295663448560E+08, 6.157190941742598E+07,
2461568.500000000, A.D. 2027-Jun-12 00:00:00.0000, 1.224699212969776E+08, -2.936366753170270E+08, 6.267958937244022E+07,
2461575.500000000, A.D. 2027-Jun-19 00:00:00.0000, 1.342628759216000E+08, -2.877258143936551E+08, 6.369804245937598E+07,
2461582.500000000, A.D. 2027-Jun-26 00:00:00.0000, 1.458639601907010E+08, -2.814037573576831E+08, 6.462545578722182E+07,
2461589.500000000, A.D. 2027-Jul-03 00:00:00.0000, 1.572559114934362E+08, -2.746782177556912E+08, 6.546020034514324E+07,
2461596.500000000, A.D. 2027-Jul-10 00:00:00.0000, 1.684218208676057E+08, -2.675578310462166E+08, 6.620083898364612E+07,
2461603.500000000, A.D. 2027-Jul-17 00:00:00.0000, 1.793451978072376E+08, -2.600521309834260E+08, 6.684613331950822E+07,
2461610.500000000, A.D. 2027-Jul-24 00:00:00.0000, 1.900100333284543E+08, -2.521715204381104E+08, 6.739504946181610E+07,
2461617.500000000, A.D. 2027-Jul-31 00:00:00.0000, 2.004008610823410E+08, -2.439272366429149E+08, 6.784676247327806E+07,
2461624.500000000, A.D. 2027-Aug-07 00:00:00.0000, 2.105028157190801E+08, -2.353313100129132E+08, 6.820065962846559E+07,
2461631.500000000, A.D. 2027-Aug-14 00:00:00.0000, 2.203016856452349E+08, -2.263965171692116E+08, 6.845634262375580E+07,
2461638.500000000, A.D. 2027-Aug-21 00:00:00.0000, 2.297839602863069E+08, -2.171363319657720E+08, 6.861362838780348E+07,
2461645.500000000, A.D. 2027-Aug-28 00:00:00.0000, 2.389368748439991E+08, -2.075648738099722E+08, 6.867254827684885E+07,
2461652.500000000, A.D. 2027-Sep-04 00:00:00.0000, 2.477484509959212E+08, -1.976968513220024E+08, 6.863334599009565E+07,
2461659.500000000, A.D. 2027-Sep-11 00:00:00.0000, 2.562075318432025E+08, -1.875475025825681E+08, 6.849647431989922E+07,
2461666.500000000, A.D. 2027-Sep-18 00:00:00.0000, 2.643038110153099E+08, -1.771325332334507E+08, 6.826259072769950E+07,
2461673.500000000, A.D. 2027-Sep-25 00:00:00.0000, 2.720278560155522E+08, -1.664680531365176E+08, 6.793255178844395E+07,
2461680.500000000, A.D. 2027-Oct-02 00:00:00.0000, 2.793711258164758E+08, -1.555705121933159E+08, 6.750740658121133E+07,
2461687.500000000, A.D. 2027-Oct-09 00:00:00.0000, 2.863259827398475E+08, -1.444566359501089E+08, 6.698838911646023E+07,
2461694.500000000, A.D. 2027-Oct-16 00:00:00.0000, 2.928856987703645E+08, -1.331433616434899E+08, 6.637690989045487E+07,
2461701.500000000, A.D. 2027-Oct-23 00:00:00.0000, 2.990444567172167E+08, -1.216477752606231E+08, 6.567454664874385E+07,
2461708.500000000, A.D. 2027-Oct-30 00:00:00.0000, 3.047973468185627E+08, -1.099870495308002E+08, 6.488303448600927E+07,
2461715.500000000, A.D. 2027-Nov-06 00:00:00.0000, 3.101403579082310E+08, -9.817838220531967E+07, 6.400425559946255E+07,
2461722.500000000, A.D. 2027-Nov-13 00:00:00.0000, 3.150703614884057E+08, -8.623893714245296E+07, 6.304022882649603E+07,
2461729.500000000, A.D. 2027-Nov-20 00:00:00.0000, 3.195850919713805E+08, -7.418579076582399E+07, 6.199309863419797E+07,
2461736.500000000, A.D. 2027-Nov-27 00:00:00.0000, 3.236831251006840E+08, -6.203588125200995E+07, 6.086512376389231E+07,
2461743.500000000, A.D. 2027-Dec-04 00:00:00.0000, 3.273638529469187E+08, -4.980595979702103E+07, 5.965866589764071E+07,
2461750.500000000, A.D. 2027-Dec-11 00:00:00.0000, 3.306274553601514E+08, -3.751254513353612E+07, 5.837617841892144E+07,
2461757.500000000, A.D. 2027-Dec-18 00:00:00.0000, 3.334748685895597E+08, -2.517188179039380E+07, 5.702019530653183E+07,
2461764.500000000, A.D. 2027-Dec-25 00:00:00.0000, 3.359077516529192E+08, -1.279990219517245E+07, 5.559332022960977E+07,
2461771.500000000, A.D. 2028-Jan-01 00:00:00.0000, 3.379284509155732E+08, -4.121926517300196E+05, 5.409821591248071E+07,
$$EOE